{"generatedAt":"2026-04-18T07:18:11.928163Z","satellites":[{"name":"KUIPER-00070","tle1":"1 64817C 25151B   26108.18518519 -.00002998  00000+0 -39267-3 0  1086","tle2":"2 64817  51.8970 130.9096 0000596  88.8045  54.4773 14.79914406    15"},{"name":"KUIPER-00071","tle1":"1 64818C 25151C   26108.11696759 -.00001785  00000+0 -23363-3 0  1086","tle2":"2 64818  51.8984 128.7389 0000448  74.2315  50.9170 14.79933975    10"},{"name":"KUIPER-00072","tle1":"1 64819C 25151D   26108.10879630 -.00004424  00000+0 -57886-3 0  1087","tle2":"2 64819  51.8956 108.7458 0001055  50.6888  96.3122 14.79948597    10"},{"name":"KUIPER-00073","tle1":"1 64820C 25151E   26108.15186343 -.00001673  00000+0 -21913-3 0  1081","tle2":"2 64820  51.8980 128.5739 0000728  63.7972  67.4326 14.79915356    18"},{"name":"KUIPER-00074","tle1":"1 64821C 25151F   26108.23063657  .00053817  00000+0  37482-3 0  1086","tle2":"2 64821  51.8957  93.8267 0005386 109.6538 187.8504 15.73571174    12"},{"name":"KUIPER-00075","tle1":"1 64822C 25151G   26108.23233796  .00058896  00000+0  13226-2 0  1081","tle2":"2 64822  51.8708  29.1665 0004767  70.4148 242.5430 15.42680867    18"},{"name":"KUIPER-00076","tle1":"1 64823C 25151H   26108.09246528 -.00001454  00000+0 -19052-3 0  1087","tle2":"2 64823  51.8983 118.8477 0000787  67.0356  51.8273 14.79896713    16"},{"name":"KUIPER-00077","tle1":"1 64824C 25151J   26108.08684028 -.00002243  00000+0 -29376-3 0  1085","tle2":"2 64824  51.8989 123.8906 0000732  58.6147  56.8426 14.79906505    16"},{"name":"KUIPER-00078","tle1":"1 64825C 25151K   26108.22721065 -.00000548  00000+0 -71784-4 0  1082","tle2":"2 64825  51.8982 120.7545 0000594  66.6757 242.9144 14.79928360    15"},{"name":"KUIPER-00079","tle1":"1 64826C 25151L   26108.08194444 -.00000988  00000+0 -12936-3 0  1083","tle2":"2 64826  51.8969 126.3679 0000546  67.1549  36.8503 14.79935058    14"},{"name":"KUIPER-00080","tle1":"1 64827C 25151M   26108.18875000 -.00001024  00000+0 -13405-3 0  1083","tle2":"2 64827  51.8971 125.9035 0000564  80.7708  52.5899 14.79930779    15"},{"name":"KUIPER-00082","tle1":"1 64828C 25151N   26108.20428241 -.00000175  00000+0 -22884-4 0  1086","tle2":"2 64828  51.8991 113.3725 0000618  77.7122 246.6306 14.79925636    16"},{"name":"KUIPER-00083","tle1":"1 64829C 25151P   26108.09003472 -.00002205  00000+0 -28907-3 0  1086","tle2":"2 64829  51.8985 121.3621 0000756  68.6471  51.5203 14.79867474    17"},{"name":"KUIPER-00084","tle1":"1 64830C 25151Q   26108.07638889  .00000938  00000+0  12286-3 0  1084","tle2":"2 64830  51.8985 131.4106 0000617  63.3146  39.9570 14.79917715    17"},{"name":"KUIPER-00085","tle1":"1 64831C 25151R   26108.23003472 -.00000859  00000+0 -11246-3 0  1086","tle2":"2 64831  51.9007 113.2921 0000684  77.9399 203.6147 14.79923065    17"},{"name":"KUIPER-00086","tle1":"1 64832C 25151S   26108.12084491 -.00000698  00000+0 -91338-4 0  1087","tle2":"2 64832  51.8986 123.7384 0000828  54.9084  61.9983 14.79938033    12"},{"name":"KUIPER-00087","tle1":"1 64833C 25151T   26108.03587963 -.00000217  00000+0 -28451-4 0  1083","tle2":"2 64833  51.8975 106.5880 0000821  74.5812 209.0659 14.79941205    11"},{"name":"KUIPER-00089","tle1":"1 64834C 25151U   26108.06510417 -.00001695  00000+0 -22201-3 0  1084","tle2":"2 64834  51.8982 111.4733 0000599  80.8363  26.9887 14.79916524    10"},{"name":"KUIPER-00090","tle1":"1 64835C 25151V   26108.07672454 -.00000835  00000+0 -10938-3 0  1085","tle2":"2 64835  51.8966 103.9444 0000875  68.4284  58.5643 14.79910732    15"},{"name":"KUIPER-00091","tle1":"1 64836C 25151W   26108.08449074 -.00001413  00000+0 -18496-3 0  1087","tle2":"2 64836  51.8990 108.8973 0000591  69.3982 127.6888 14.79936113    14"},{"name":"KUIPER-00092","tle1":"1 64837C 25151X   26108.18391204 -.00002716  00000+0 -35572-3 0  1081","tle2":"2 64837  51.8984 115.9543 0000721  64.6931 345.4040 14.79918620    10"},{"name":"KUIPER-00093","tle1":"1 64838C 25151Y   26108.12913194 -.00003880  00000+0 -50730-3 0  1080","tle2":"2 64838  51.8978 118.6726 0000688  60.8949  73.1186 14.79984363    19"},{"name":"KUIPER-00094","tle1":"1 64839C 25151Z   26108.22475694  .00002836  00000+0  19874-3 0  1082","tle2":"2 64839  51.8881  80.6418 0007345  70.0259 237.7226 15.04672079    13"},{"name":"KUIPER-00081","tle1":"1 65132C 25171A   26108.11869213  .00009415  00000+0  12326-2 0  1087","tle2":"2 65132  51.9003 333.7200 0000830 107.5470  35.7525 14.79915857    14"},{"name":"KUIPER-00088","tle1":"1 65133C 25171B   26108.18275463  .00006792  00000+0  88946-3 0  1080","tle2":"2 65133  51.9005 350.9421 0000675 100.5288 124.8080 14.79907386    14"},{"name":"KUIPER-00095","tle1":"1 65134C 25171C   26108.13483796  .00008055  00000+0  10545-2 0  1089","tle2":"2 65134  51.8981 331.2168 0000825 106.9658 107.7410 14.79922808    18"},{"name":"KUIPER-00096","tle1":"1 65135C 25171D   26108.15706019  .00009449  00000+0  12376-2 0  1080","tle2":"2 65135  51.8998 343.5558 0000690  98.0306 127.2099 14.79900012    10"},{"name":"KUIPER-00097","tle1":"1 65136C 25171E   26108.14074074  .00010216  00000+0  13380-2 0  1089","tle2":"2 65136  51.9020 346.2655 0000812 102.2592  50.2727 14.79900221    12"},{"name":"KUIPER-00098","tle1":"1 65137C 25171F   26108.22025463  .00006447  00000+0  84363-3 0  1088","tle2":"2 65137  51.9009 348.2877 0001009  97.4307 133.3773 14.79936593    11"},{"name":"KUIPER-00099","tle1":"1 65138C 25171G   26108.07291667  .00009056  00000+0  11858-2 0  1080","tle2":"2 65138  51.9025 338.9305 0000890 103.3897 184.3864 14.79909805    13"},{"name":"KUIPER-00100","tle1":"1 65139C 25171H   26108.09386574  .00008449  00000+0  11047-2 0  1080","tle2":"2 65139  51.9016 336.3160 0000841  92.4696 111.9930 14.79973869    17"},{"name":"KUIPER-00102","tle1":"1 65140C 25171J   26108.16225694  .00007652  00000+0  10013-2 0  1082","tle2":"2 65140  51.8986 338.5255 0000878 104.2318 119.9615 14.79938445    15"},{"name":"KUIPER-00103","tle1":"1 65141C 25171K   26108.17581019  .00009781  00000+0  12800-2 0  1081","tle2":"2 65141  51.8997 355.9585 0000902 100.1271 116.8679 14.79930526    16"},{"name":"KUIPER-00104","tle1":"1 65142C 25171L   26108.14175926  .00008447  00000+0  11055-2 0  1084","tle2":"2 65142  51.9023 343.5840 0000839 103.8066 219.9445 14.79931293    14"},{"name":"KUIPER-00105","tle1":"1 65143C 25171M   26108.21677083  .00007087  00000+0  92805-3 0  1086","tle2":"2 65143  51.9009 350.8669 0000776 102.1983 124.3754 14.79906220    13"},{"name":"KUIPER-00106","tle1":"1 65144C 25171N   26108.12995370  .00006414  00000+0  54338-3 0  1081","tle2":"2 65144  51.8936 335.7320 0006913 228.4385 345.9585 14.97460982    18"},{"name":"KUIPER-00107","tle1":"1 65145C 25171P   26108.08483796  .00008739  00000+0  11444-2 0  1083","tle2":"2 65145  51.9005 333.8900 0000805 104.3879  38.2182 14.79909186    13"},{"name":"KUIPER-00108","tle1":"1 65146C 25171Q   26108.20886574  .00006707  00000+0  87807-3 0  1089","tle2":"2 65146  51.9027 345.8638 0000813 107.3115 228.6776 14.79917051    18"},{"name":"KUIPER-00109","tle1":"1 65147C 25171R   26108.17692130  .00008439  00000+0  11044-2 0  1082","tle2":"2 65147  51.9027 340.9479 0000774 105.3675 211.3384 14.79933714    11"},{"name":"KUIPER-00110","tle1":"1 65148C 25171S   26108.19901620  .00009319  00000+0  12195-2 0  1088","tle2":"2 65148  51.9006 353.4274 0001052  63.6407 262.6691 14.79935060    16"},{"name":"KUIPER-00111","tle1":"1 65149C 25171T   26108.20949074  .00009092  00000+0  11902-2 0  1089","tle2":"2 65149  51.8981 358.2819 0000895 101.8958 128.9272 14.79919313    18"},{"name":"KUIPER-00112","tle1":"1 65150C 25171U   26108.14406250 -.00001513  00000+0 -19814-3 0  1081","tle2":"2 65150  51.9019 341.1456 0000790 110.1809 211.3522 14.79918139    13"},{"name":"KUIPER-00114","tle1":"1 65151C 25171V   26108.04677083  .00008339  00000+0  10919-2 0  1082","tle2":"2 65151  51.9005   1.5655 0000818 100.3176 357.3873 14.79911347    10"},{"name":"KUIPER-00115","tle1":"1 65152C 25171W   26108.14554398  .00009317  00000+0  12199-2 0  1086","tle2":"2 65152  51.9014 353.6205 0000775 115.0343 106.2376 14.79913265    14"},{"name":"KUIPER-00116","tle1":"1 65153C 25171X   26108.19208333  .00009442  00000+0  12374-2 0  1081","tle2":"2 65153  51.9011 358.4500 0000884  90.9072 228.0364 14.79876224    17"},{"name":"KUIPER-00118","tle1":"1 65154C 25171Y   26108.15533565  .00009157  00000+0  11987-2 0  1088","tle2":"2 65154  51.9008   1.0700 0000909 101.5490  34.9254 14.79919447    15"},{"name":"KUIPER-00119","tle1":"1 65155C 25171Z   26108.18131944  .00004472  00000+0  58737-3 0  1087","tle2":"2 65155  51.9011 348.5148 0000804  18.0097 198.9196 14.79781686    12"},{"name":"KUIPER-00120","tle1":"1 65762C 25217A   26108.09416667  .00003415  00000+0  44692-3 0  1081","tle2":"2 65762  51.8986 238.8188 0000524 109.1325 166.9323 14.79932467    18"},{"name":"KUIPER-00132","tle1":"1 65763C 25217B   26108.23271991  .00005670  00000+0  13408-3 0  1083","tle2":"2 65763  51.8559 171.3140 0006518  98.5643 138.6267 15.41177741    16"},{"name":"KUIPER-00133","tle1":"1 65764C 25217C   26108.05914352  .00003779  00000+0  49453-3 0  1086","tle2":"2 65764  51.9030 239.0428 0001078 140.2846 129.1032 14.79936671    19"},{"name":"KUIPER-00139","tle1":"1 65765C 25217D   26108.07223380 -.00043438  00000+0 -32505-2 0  1080","tle2":"2 65765  51.8850 213.4548 0008523  79.0804 148.2114 15.02248683    12"},{"name":"KUIPER-00142","tle1":"1 65766C 25217E   26108.17125000  .00005717  00000+0  74861-3 0  1080","tle2":"2 65766  51.8992 221.0017 0000520 101.8499 124.5191 14.79915617    12"},{"name":"KUIPER-00145","tle1":"1 65767C 25217F   26108.23346065  .00006356  00000+0  83246-3 0  1081","tle2":"2 65767  51.8996 223.2428 0000571  95.4919 116.9893 14.79905144    16"},{"name":"KUIPER-00147","tle1":"1 65768C 25217G   26108.21814815 -.00073074  00000+0 -95628-2 0  1082","tle2":"2 65768  51.8985 225.8002 0000243 146.5049 179.4668 14.80017061    17"}]}